*******************************************************************************
JPL/HORIZONS              747 Winchester (A913 EK)         2020-Jun-22 09:27:20
Rec #:     747 (+COV) Soln.date: 2020-May-20_01:12:10   # obs: 2794 (1913-2020)
 
IAU76/J2000 helio. ecliptic osc. elements (au, days, deg., period=Julian yrs):
 
  EPOCH=  2454262.5 ! 2007-Jun-11.00 (TDB)         Residual RMS= .22564
   EC= .3437985428168226   QR= 1.964227734125469   TP= 2453497.5556749525
   OM= 130.1935073470936   W=  275.5586801436232   IN= 18.17455259689237
   A= 2.993330344856517    MA= 145.5800715205573   ADIST= 4.022432955587564
   PER= 5.17893            N= .190314592           ANGMOM= .027947595
   DAN= 2.55446            DDN= 2.73046            L= 46.042105
   B= -18.0861224          MOID= 1.06664002        TP= 2005-May-07.0556749525
 
Asteroid physical parameters (km, seconds, rotational period in hours):
   GM= n.a.                RAD= 85.855             ROTPER= 9.4146
   H= 7.8                  G= .150                 B-V= .713
                           ALBEDO= .0503           STYP= C
 
ASTEROID comments: 
1: soln ref.= JPL#98, OCC=0
2: source=ORB
*******************************************************************************
 
 
*******************************************************************************
Ephemeris / WWW_USER Mon Jun 22 09:27:20 2020 Pasadena, USA      / Horizons
*******************************************************************************
Target body name: 747 Winchester (A913 EK)        {source: JPL#98}
Center body name: Solar System Barycenter (0)     {source: DE431}
Center-site name: BODY CENTER
*******************************************************************************
Start time      : A.D. 1969-Jun-28 00:00:00.0000 TDB
Stop  time      : A.D. 2071-May-04 00:00:00.0000 TDB
Step-size       : 7200 minutes
*******************************************************************************
Center geodetic : 0.00000000,0.00000000,0.0000000 {E-lon(deg),Lat(deg),Alt(km)}
Center cylindric: 0.00000000,0.00000000,0.0000000 {E-lon(deg),Dxy(km),Dz(km)}
Center radii    : (undefined)                                                  
Small perturbers: Yes                             {source: SB431-N16}
Output units    : AU-D
Output type     : GEOMETRIC cartesian states
Output format   : 2 (position and velocity)
Reference frame : Ecliptic of J2000.0
*******************************************************************************
Initial IAU76/J2000 heliocentric ecliptic osculating elements (au, days, deg.):
  EPOCH=  2454262.5 ! 2007-Jun-11.00 (TDB)         Residual RMS= .22564        
   EC= .3437985428168226   QR= 1.964227734125469   TP= 2453497.5556749525      
   OM= 130.1935073470936   W=  275.5586801436232   IN= 18.17455259689237       
  Equivalent ICRF heliocentric equatorial cartesian coordinates (au, au/d):
   X=-3.329665496546525E+00  Y=-2.024315517023656E+00  Z= 4.225154410665243E-01
  VX= 2.390011273102642E-03 VY=-6.535755094237537E-03 VZ=-1.925271053481020E-03
Asteroid physical parameters (km, seconds, rotational period in hours):        
   GM= n.a.                RAD= 85.855             ROTPER= 9.4146              
   H= 7.8                  G= .150                 B-V= .713                   
                           ALBEDO= .0503           STYP= C                     
*******************************************************************************
            JDTDB,            Calendar Date (TDB),        delta-T,                      X,                      Y,                      Z,                     VX,                     VY,                     VZ,
******************************************************************************************************************************************************************************************************************
$$SOE
2462520.500000000, A.D. 2030-Jan-19 00:00:00.0000,      69.184447,  6.423881842028517E-01, -3.215894397077449E+00,  5.006723356044265E-01,  7.440882021268871E-03,  4.076624611658359E-03, -2.747885646302939E-03,
2462525.500000000, A.D. 2030-Jan-24 00:00:00.0000,      69.184583,  6.795258643490287E-01, -3.195184762792199E+00,  4.868824267477468E-01,  7.413877815364682E-03,  4.207378328065031E-03, -2.768028770074430E-03,
2462530.500000000, A.D. 2030-Jan-29 00:00:00.0000,      69.184716,  7.165238027121450E-01, -3.173819123460352E+00,  4.729925491477595E-01,  7.384977778149648E-03,  4.339026220342847E-03, -2.787871130584229E-03,
2462535.500000000, A.D. 2030-Feb-03 00:00:00.0000,      69.184844,  7.533724060612873E-01, -3.151793015016356E+00,  4.590042372419628E-01,  7.354136053563540E-03,  4.471565428101017E-03, -2.807400393546819E-03,
2462540.500000000, A.D. 2030-Feb-08 00:00:00.0000,      69.184967,  7.900618484622263E-01, -3.129101989769884E+00,  4.449190884440511E-01,  7.321305410683846E-03,  4.604992251469871E-03, -2.826603699217963E-03,
2462545.500000000, A.D. 2030-Feb-13 00:00:00.0000,      69.185080,  8.265820643182056E-01, -3.105741620758931E+00,  4.307387658251405E-01,  7.286437209758708E-03,  4.739302088181676E-03, -2.845467640688804E-03,
2462550.500000000, A.D. 2030-Feb-18 00:00:00.0000,      69.185184,  8.629227412408800E-01, -3.081707506427288E+00,  4.164650009055261E-01,  7.249481368252788E-03,  4.874489366702389E-03, -2.863978241378936E-03,
2462555.500000000, A.D. 2030-Feb-23 00:00:00.0000,      69.185279,  8.990733127517863E-01, -3.056995275646645E+00,  4.020995965609834E-01,  7.210386327040647E-03,  5.010547475210350E-03, -2.882120931722700E-03,
2462560.500000000, A.D. 2030-Feb-28 00:00:00.0000,      69.185365,  9.350229508155035E-01, -3.031600593104654E+00,  3.876444300476786E-01,  7.169099016921426E-03,  5.147468686198579E-03, -2.899880525039438E-03,
2462565.500000000, A.D. 2030-Mar-05 00:00:00.0000,      69.185443,  9.707605582066244E-01, -3.005519165081461E+00,  3.731014561498026E-01,  7.125564825665199E-03,  5.285244076435968E-03, -2.917241192567992E-03,
2462570.500000000, A.D. 2030-Mar-10 00:00:00.0000,      69.185509,  1.006274760713749E+00, -2.978746745638675E+00,  3.584727104541837E-01,  7.079727565811649E-03,  5.423863441965998E-03, -2.934186437634449E-03,
2462575.500000000, A.D. 2030-Mar-15 00:00:00.0000,      69.185563,  1.041553899184795E+00, -2.951279143246512E+00,  3.437603127562974E-01,  7.031529443434232E-03,  5.563315207791755E-03, -2.950699068924730E-03,
2462580.500000000, A.D. 2030-Mar-20 00:00:00.0000,      69.185604,  1.076586021418968E+00, -2.923112227876508E+00,  3.289664706021743E-01,  6.980911028068553E-03,  5.703586331891891E-03, -2.966761172848612E-03,
2462585.500000000, A.D. 2030-Mar-25 00:00:00.0000,      69.185632,  1.111358873911683E+00, -2.894241938589041E+00,  3.140934829707528E-01,  6.927811224003997E-03,  5.844662203241247E-03, -2.982354085003745E-03,
2462590.500000000, A.D. 2030-Mar-30 00:00:00.0000,      69.185651,  1.145859893459788E+00, -2.864664291646246E+00,  2.991437441010822E-01,  6.872167243141390E-03,  5.986526533601792E-03, -2.997458360781878E-03,
2462595.500000000, A.D. 2030-Apr-04 00:00:00.0000,      69.185658,  1.180076198635540E+00, -2.834375389181827E+00,  2.841197474684963E-01,  6.813914579709691E-03,  6.129161242946157E-03, -3.012053745182269E-03,
2462600.500000000, A.D. 2030-Apr-09 00:00:00.0000,      69.185652,  1.213994581139763E+00, -2.803371428460128E+00,  2.690240899136205E-01,  6.752986987299280E-03,  6.272546338271315E-03, -3.026119141867148E-03,
2462605.500000000, A.D. 2030-Apr-14 00:00:00.0000,      69.185633,  1.247601497047040E+00, -2.771648711758767E+00,  2.538594759280515E-01,  6.689316458721532E-03,  6.416659785259568E-03, -3.039632581433319E-03,
2462610.500000000, A.D. 2030-Apr-19 00:00:00.0000,      69.185601,  1.280883057958024E+00, -2.739203656911863E+00,  2.386287221006093E-01,  6.622833209050159E-03,  6.561477372308497E-03, -3.052571188917012E-03,
2462615.500000000, A.D. 2030-Apr-24 00:00:00.0000,      69.185557,  1.313825022075618E+00, -2.706032808552907E+00,  2.233347617278519E-01,  6.553465662185566E-03,  6.706972566613436E-03, -3.064911150602502E-03,
2462620.500000000, A.D. 2030-Apr-29 00:00:00.0000,      69.185504,  1.346412785223657E+00, -2.672132850097497E+00,  2.079806495920721E-01,  6.481140441379958E-03,  6.853116362101720E-03, -3.076627680236259E-03,
2462625.500000000, A.D. 2030-May-04 00:00:00.0000,      69.185441,  1.378631371829276E+00, -2.637500616507201E+00,  1.925695669094983E-01,  6.405782364287356E-03,  6.999877119015359E-03, -3.087694984749588E-03,
2462630.500000000, A.D. 2030-May-09 00:00:00.0000,      69.185367,  1.410465425893253E+00, -2.602133107876846E+00,  1.771048264508956E-01,  6.327314443232981E-03,  7.147220394912792E-03, -3.098086229590669E-03,
2462635.500000000, A.D. 2030-May-14 00:00:00.0000,      69.185282,  1.441899201976438E+00, -2.566027503888840E+00,  1.615898778362833E-01,  6.245657891521427E-03,  7.295108766798877E-03, -3.107773503763710E-03,
2462640.500000000, A.D. 2030-May-19 00:00:00.0000,      69.185186,  1.472916556234697E+00, -2.529181179179798E+00,  1.460283130049801E-01,  6.160732136692176E-03,  7.443501644010715E-03, -3.116727784675781E-03,
2462645.500000000, A.D. 2030-May-24 00:00:00.0000,      69.185082,  1.503500937539469E+00, -2.491591719666728E+00,  1.304238718616569E-01,  6.072454841668563E-03,  7.592355071421937E-03, -3.124918902908583E-03,
2462650.500000000, A.D. 2030-May-29 00:00:00.0000,      69.184973,  1.533635378725804E+00, -2.453256939882321E+00,  1.147804480984127E-01,  5.980741934762707E-03,  7.741621522538322E-03, -3.132315507066121E-03,
2462655.500000000, A.D. 2030-Jun-03 00:00:00.0000,      69.184857,  1.563302488014649E+00, -2.414174901370846E+00,  9.910209519204093E-02,  5.885507649543911E-03,  7.891249682098622E-03, -3.138885028884634E-03,
